ONEWEB-0168             
1 48068U 21025AC  23324.87180408  .00000127  00000+0  31150-3 0  9998
2 48068  87.8905 147.1359 0001662  88.3034 271.8286 13.13471323130259
ONEWEB-0173             
1 48069U 21025AD  23324.78927273  .00000019  00000+0  15826-4 0  9991
2 48069  87.8908 147.1689 0001528 108.3827 251.7468 13.13471964130488
ONEWEB-0171             
1 48070U 21025AE  23324.89931192  .00000181  00000+0  45987-3 0  9990
2 48070  87.8979 147.1667 0001380  94.3425 265.7862 13.13467886130311
ONEWEB-0172             
1 48071U 21025AF  23324.88130550  .00000348  00000+0  91785-3 0  9991
2 48071  87.8976 147.1387 0001361 100.4118 259.7165 13.13473222131204
ONEWEB-0174             
1 48072U 21025AG  23324.55863111  .00000001  00000+0 -31523-4 0  9994
2 48072  87.8974 147.2174 0001786  86.8083 273.3250 13.13475170130487
ONEWEB-0175             
1 48073U 21025AH  23324.89085021  .00000380  00000+0  10050-2 0  9997
2 48073  87.8981 147.1473 0001057  90.9200 269.2050 13.13472083130184
ONEWEB-0177             
1 48074U 21025AJ  23324.90354383  .00000164  00000+0  41471-3 0  9992
2 48074  87.8985 147.1494 0001727 105.9520 254.1799 13.13468210130379
ONEWEB-0178             
1 48075U 21025AK  23324.92151738 -.00000245  00000+0 -70542-3 0  9997
2 48075  87.8990 147.1493 0001647  95.7872 264.3445 13.13467942130420
